KUIPER-00265            
1 67159U 25301AC  26195.42472919  .00001231  00000+0  19040-3 0  9993
2 67159  51.9028 245.2226 0000393  94.0916 266.0092 14.79928861 32254
KUIPER-00159            
1 67764U 26030A   26195.91670139 -.02058580  00000+0 -86467-1 0  9991
2 67764  51.8889 324.4507 0005715 125.0711  85.7313 15.26395254  5409
KUIPER-00160            
1 67765U 26030B   26195.65760460  .00019249  00000+0  52784-3 0  9992
2 67765  51.8822 325.3914 0005971 140.6045 219.5377 15.37284241 24623
KUIPER-00177            
1 67766U 26030C   26195.77679703  .00000247  00000+0  61345-4 0  9997
2 67766  51.9013  11.1445 0000650 127.2770 232.8252 14.79934548 23997
KUIPER-00178            
1 67767U 26030D   26195.74302570 -.00000098  00000+0  16136-4 0  9993
2 67767  51.9013  11.2755 0000817 130.1839 229.9196 14.79933315 23992
KUIPER-00180            
1 67768U 26030E   26195.88348043  .00000069  00000+0  38085-4 0  9998
2 67768  51.9002   5.6579 0000669 124.7445 235.3581 14.79933445 24083
KUIPER-00197            
1 67769U 26030F   26195.63493348  .00000684  00000+0  11865-3 0  9990
2 67769  51.9006 346.7683 0000537 171.4002 188.6970 14.79932005 24325
KUIPER-00198            
1 67770U 26030G   26195.65520901  .00001614  00000+0  24066-3 0  9991
2 67770  51.8999 359.1636 0000599 115.3375 244.7650 14.79929578 24152
KUIPER-00199            
1 67771U 26030H   26195.61657900  .00003235  00000+0  98561-4 0  9991
2 67771  51.8826 327.3293 0009215 147.8060 212.3491 15.37007311 24592
KUIPER-00200            
1 67772U 26030J   26195.60392167  .00001721  00000+0  25510-3 0  9993
2 67772  51.8998 344.4351 0001402  78.3276 281.7843 14.79874525 24354
KUIPER-00203            
1 67773U 26030K   26195.70387475  .00001598  00000+0  23856-3 0  9994
2 67773  51.9085  16.5117 0000841 144.6385 215.4633 14.79934483 23916
KUIPER-00205            
1 67774U 26030L   26195.60645177  .00001543  00000+0  23139-3 0  9994
2 67774  51.9021 341.8737 0001120 114.0019 246.1061 14.79928169 24398
KUIPER-00208            
1 67775U 26030M   26195.67388399  .00001160  00000+0  19561-3 0  9991
2 67775  51.8987   9.0425 0008171 120.8030 239.3736 14.76516945 24011
KUIPER-00209            
1 67776U 26030N   26195.78219501  .00001681  00000+0  24949-3 0  9996
2 67776  51.9008   6.1981 0000633 125.4045 234.6977 14.79930548 24066
KUIPER-00213            
1 67777U 26030P   26195.95371079  .00001683  00000+0  24970-3 0  9991
2 67777  51.8972   2.9203 0000629 106.4459 253.6573 14.79935385 24124
KUIPER-00214            
1 67778U 26030Q   26195.65253357  .00000681  00000+0  11837-3 0  9992
2 67778  51.9011   1.7620 0000562 111.3221 248.7802 14.79936914 24116
