{"fetched_at":"2026-07-15T06:35:30.786Z","source":"https://celestrak.org/NORAD/elements/gp.php?GROUP=kuiper&FORMAT=JSON","constellation":"kuiper","records":[{"OBJECT_NAME":"KUIPER-00265","OBJECT_ID":"2025-301AC","EPOCH":"2026-07-14T10:11:36.602016","CLASSIFICATION_TYPE":"U","MEAN_MOTION":14.79928861,"ECCENTRICITY":0.00003938,"INCLINATION":51.9028,"RA_OF_ASC_NODE":245.2226,"ARG_OF_PERICENTER":94.0916,"MEAN_ANOMALY":266.0092,"EPHEMERIS_TYPE":0,"NORAD_CAT_ID":67159,"ELEMENT_SET_NO":999,"REV_AT_EPOCH":3225,"BSTAR":0.00019039599,"MEAN_MOTION_DOT":0.00001231,"MEAN_MOTION_DDOT":0},{"OBJECT_NAME":"KUIPER-00159","OBJECT_ID":"2026-030A","EPOCH":"2026-07-14T22:00:03.000096","CLASSIFICATION_TYPE":"U","MEAN_MOTION":15.26395254,"ECCENTRICITY":0.00057152,"INCLINATION":51.8889,"RA_OF_ASC_NODE":324.4507,"ARG_OF_PERICENTER":125.0711,"MEAN_ANOMALY":85.7313,"EPHEMERIS_TYPE":0,"NORAD_CAT_ID":67764,"ELEMENT_SET_NO":999,"REV_AT_EPOCH":540,"BSTAR":-0.086466515,"MEAN_MOTION_DOT":-0.0205858,"MEAN_MOTION_DDOT":0},{"OBJECT_NAME":"KUIPER-00160","OBJECT_ID":"2026-030B","EPOCH":"2026-07-14T15:46:57.037440","CLASSIFICATION_TYPE":"U","MEAN_MOTION":15.37284241,"ECCENTRICITY":0.00059719,"INCLINATION":51.8822,"RA_OF_ASC_NODE":325.3914,"ARG_OF_PERICENTER":140.6045,"MEAN_ANOMALY":219.5377,"EPHEMERIS_TYPE":0,"NORAD_CAT_ID":67765,"ELEMENT_SET_NO":999,"REV_AT_EPOCH":2462,"BSTAR":0.00052784088,"MEAN_MOTION_DOT":0.00019249,"MEAN_MOTION_DDOT":0},{"OBJECT_NAME":"KUIPER-00177","OBJECT_ID":"2026-030C","EPOCH":"2026-07-14T18:38:35.263392","CLASSIFICATION_TYPE":"U","MEAN_MOTION":14.79934548,"ECCENTRICITY":0.00006508,"INCLINATION":51.9013,"RA_OF_ASC_NODE":11.1445,"ARG_OF_PERICENTER":127.277,"MEAN_ANOMALY":232.8252,"EPHEMERIS_TYPE":0,"NORAD_CAT_ID":67766,"ELEMENT_SET_NO":999,"REV_AT_EPOCH":2399,"BSTAR":0.000061344656,"MEAN_MOTION_DOT":0.00000247,"MEAN_MOTION_DDOT":0},{"OBJECT_NAME":"KUIPER-00178","OBJECT_ID":"2026-030D","EPOCH":"2026-07-14T17:49:57.420480","CLASSIFICATION_TYPE":"U","MEAN_MOTION":14.79933315,"ECCENTRICITY":0.0000817,"INCLINATION":51.9013,"RA_OF_ASC_NODE":11.2755,"ARG_OF_PERICENTER":130.1839,"MEAN_ANOMALY":229.9196,"EPHEMERIS_TYPE":0,"NORAD_CAT_ID":67767,"ELEMENT_SET_NO":999,"REV_AT_EPOCH":2399,"BSTAR":0.00001613607,"MEAN_MOTION_DOT":-9.8e-7,"MEAN_MOTION_DDOT":0},{"OBJECT_NAME":"KUIPER-00180","OBJECT_ID":"2026-030E","EPOCH":"2026-07-14T21:12:12.709152","CLASSIFICATION_TYPE":"U","MEAN_MOTION":14.79933445,"ECCENTRICITY":0.0000669,"INCLINATION":51.9002,"RA_OF_ASC_NODE":5.6579,"ARG_OF_PERICENTER":124.7445,"MEAN_ANOMALY":235.3581,"EPHEMERIS_TYPE":0,"NORAD_CAT_ID":67768,"ELEMENT_SET_NO":999,"REV_AT_EPOCH":2408,"BSTAR":0.000038085347,"MEAN_MOTION_DOT":6.9e-7,"MEAN_MOTION_DDOT":0},{"OBJECT_NAME":"KUIPER-00197","OBJECT_ID":"2026-030F","EPOCH":"2026-07-14T15:14:18.252672","CLASSIFICATION_TYPE":"U","MEAN_MOTION":14.79932005,"ECCENTRICITY":0.00005379,"INCLINATION":51.9006,"RA_OF_ASC_NODE":346.7683,"ARG_OF_PERICENTER":171.4002,"MEAN_ANOMALY":188.697,"EPHEMERIS_TYPE":0,"NORAD_CAT_ID":67769,"ELEMENT_SET_NO":999,"REV_AT_EPOCH":2432,"BSTAR":0.00011865242,"MEAN_MOTION_DOT":0.00000684,"MEAN_MOTION_DDOT":0},{"OBJECT_NAME":"KUIPER-00198","OBJECT_ID":"2026-030G","EPOCH":"2026-07-14T15:43:30.058464","CLASSIFICATION_TYPE":"U","MEAN_MOTION":14.79929578,"ECCENTRICITY":0.00005994,"INCLINATION":51.8999,"RA_OF_ASC_NODE":359.1636,"ARG_OF_PERICENTER":115.3375,"MEAN_ANOMALY":244.765,"EPHEMERIS_TYPE":0,"NORAD_CAT_ID":67770,"ELEMENT_SET_NO":999,"REV_AT_EPOCH":2415,"BSTAR":0.00024065983,"MEAN_MOTION_DOT":0.00001614,"MEAN_MOTION_DDOT":0},{"OBJECT_NAME":"KUIPER-00199","OBJECT_ID":"2026-030H","EPOCH":"2026-07-14T14:47:52.425600","CLASSIFICATION_TYPE":"U","MEAN_MOTION":15.37007311,"ECCENTRICITY":0.00092156,"INCLINATION":51.8826,"RA_OF_ASC_NODE":327.3293,"ARG_OF_PERICENTER":147.806,"MEAN_ANOMALY":212.3491,"EPHEMERIS_TYPE":0,"NORAD_CAT_ID":67771,"ELEMENT_SET_NO":999,"REV_AT_EPOCH":2459,"BSTAR":0.000098560708,"MEAN_MOTION_DOT":0.00003235,"MEAN_MOTION_DDOT":0},{"OBJECT_NAME":"KUIPER-00200","OBJECT_ID":"2026-030J","EPOCH":"2026-07-14T14:29:38.832288","CLASSIFICATION_TYPE":"U","MEAN_MOTION":14.79874525,"ECCENTRICITY":0.0001402,"INCLINATION":51.8998,"RA_OF_ASC_NODE":344.4351,"ARG_OF_PERICENTER":78.3276,"MEAN_ANOMALY":281.7843,"EPHEMERIS_TYPE":0,"NORAD_CAT_ID":67772,"ELEMENT_SET_NO":999,"REV_AT_EPOCH":2435,"BSTAR":0.0002551,"MEAN_MOTION_DOT":0.00001721,"MEAN_MOTION_DDOT":0},{"OBJECT_NAME":"KUIPER-00203","OBJECT_ID":"2026-030K","EPOCH":"2026-07-14T16:53:34.778400","CLASSIFICATION_TYPE":"U","MEAN_MOTION":14.79934483,"ECCENTRICITY":0.00008411,"INCLINATION":51.9085,"RA_OF_ASC_NODE":16.5117,"ARG_OF_PERICENTER":144.6385,"MEAN_ANOMALY":215.4633,"EPHEMERIS_TYPE":0,"NORAD_CAT_ID":67773,"ELEMENT_SET_NO":999,"REV_AT_EPOCH":2391,"BSTAR":0.00023856305,"MEAN_MOTION_DOT":0.00001598,"MEAN_MOTION_DDOT":0},{"OBJECT_NAME":"KUIPER-00205","OBJECT_ID":"2026-030L","EPOCH":"2026-07-14T14:33:17.432928","CLASSIFICATION_TYPE":"U","MEAN_MOTION":14.79928169,"ECCENTRICITY":0.000112,"INCLINATION":51.9021,"RA_OF_ASC_NODE":341.8737,"ARG_OF_PERICENTER":114.0019,"MEAN_ANOMALY":246.1061,"EPHEMERIS_TYPE":0,"NORAD_CAT_ID":67774,"ELEMENT_SET_NO":999,"REV_AT_EPOCH":2439,"BSTAR":0.00023139,"MEAN_MOTION_DOT":0.00001543,"MEAN_MOTION_DDOT":0},{"OBJECT_NAME":"KUIPER-00208","OBJECT_ID":"2026-030M","EPOCH":"2026-07-14T16:10:23.576736","CLASSIFICATION_TYPE":"U","MEAN_MOTION":14.76516945,"ECCENTRICITY":0.00081715,"INCLINATION":51.8987,"RA_OF_ASC_NODE":9.0425,"ARG_OF_PERICENTER":120.803,"MEAN_ANOMALY":239.3736,"EPHEMERIS_TYPE":0,"NORAD_CAT_ID":67775,"ELEMENT_SET_NO":999,"REV_AT_EPOCH":2401,"BSTAR":0.0001956094,"MEAN_MOTION_DOT":0.0000116,"MEAN_MOTION_DDOT":0},{"OBJECT_NAME":"KUIPER-00209","OBJECT_ID":"2026-030N","EPOCH":"2026-07-14T18:46:21.648864","CLASSIFICATION_TYPE":"U","MEAN_MOTION":14.79930548,"ECCENTRICITY":0.00006333,"INCLINATION":51.9008,"RA_OF_ASC_NODE":6.1981,"ARG_OF_PERICENTER":125.4045,"MEAN_ANOMALY":234.6977,"EPHEMERIS_TYPE":0,"NORAD_CAT_ID":67776,"ELEMENT_SET_NO":999,"REV_AT_EPOCH":2406,"BSTAR":0.00024949065,"MEAN_MOTION_DOT":0.00001681,"MEAN_MOTION_DDOT":0},{"OBJECT_NAME":"KUIPER-00213","OBJECT_ID":"2026-030P","EPOCH":"2026-07-14T22:53:20.612256","CLASSIFICATION_TYPE":"U","MEAN_MOTION":14.79935385,"ECCENTRICITY":0.00006299,"INCLINATION":51.8972,"RA_OF_ASC_NODE":2.9203,"ARG_OF_PERICENTER":106.4459,"MEAN_ANOMALY":253.6573,"EPHEMERIS_TYPE":0,"NORAD_CAT_ID":67777,"ELEMENT_SET_NO":999,"REV_AT_EPOCH":2412,"BSTAR":0.0002497025,"MEAN_MOTION_DOT":0.00001683,"MEAN_MOTION_DDOT":0},{"OBJECT_NAME":"KUIPER-00214","OBJECT_ID":"2026-030Q","EPOCH":"2026-07-14T15:39:38.900448","CLASSIFICATION_TYPE":"U","MEAN_MOTION":14.79936914,"ECCENTRICITY":0.00005621,"INCLINATION":51.9011,"RA_OF_ASC_NODE":1.762,"ARG_OF_PERICENTER":111.3221,"MEAN_ANOMALY":248.7802,"EPHEMERIS_TYPE":0,"NORAD_CAT_ID":67778,"ELEMENT_SET_NO":999,"REV_AT_EPOCH":2411,"BSTAR":0.00011837346,"MEAN_MOTION_DOT":0.00000681,"MEAN_MOTION_DDOT":0}]}
